{
  "type": "FeatureCollection",
  "features": [
    {
      "type": "Feature",
      "properties": {
        "norad_id": 29268,
        "name": "ARIRANG-2 (KOMPSAT-2)",
        "group": "resource",
        "lat": -49.69155997573417,
        "lon": -13.204784298573143,
        "alt_km": 683.2763137678148,
        "timestamp": "2025-12-13T16:48:32.369906+00:00",
        "meta_object_name": "ARIRANG-2 (KOMPSAT-2)",
        "meta_object_id": "2006-031A",
        "meta_epoch": "2025-12-13T01:31:14.729088",
        "meta_mean_motion": 14.64495292,
        "meta_eccentricity": 0.00134987,
        "meta_inclination": 97.8265,
        "meta_ra_of_asc_node": 175.5206,
        "meta_arg_of_pericenter": 308.2866,
        "meta_mean_anomaly": 165.6993,
        "meta_ephemeris_type": 0,
        "meta_classification_type": "U",
        "meta_norad_cat_id": 29268,
        "meta_element_set_no": 999,
        "meta_rev_at_epoch": 3423,
        "meta_bstar": 0.00018787653,
        "meta_mean_motion_dot": 9.51e-06,
        "meta_mean_motion_ddot": 0,
        "tle_line1": "1 29268U 06031A   25347.06336492  .00000951  00000+0  18788-3 0  9990",
        "tle_line2": "2 29268  97.8265 175.5206 0013498 308.2866 165.6993 14.64495292 34237"
      },
      "geometry": {
        "type": "Point",
        "coordinates": [
          -13.204784298573143,
          -49.69155997573417
        ]
      }
    },
    {
      "type": "Feature",
      "properties": {
        "norad_id": 29709,
        "name": "LAPAN-TUBSAT",
        "group": "resource",
        "lat": -57.30974474244781,
        "lon": 145.0122092843969,
        "alt_km": 627.8314367068242,
        "timestamp": "2025-12-13T16:48:32.369931+00:00",
        "meta_object_name": "LAPAN-TUBSAT",
        "meta_object_id": "2007-001A",
        "meta_epoch": "2025-12-12T23:34:36.716160",
        "meta_mean_motion": 14.85670038,
        "meta_eccentricity": 0.00135829,
        "meta_inclination": 98.126,
        "meta_ra_of_asc_node": 337.1437,
        "meta_arg_of_pericenter": 73.2854,
        "meta_mean_anomaly": 286.985,
        "meta_ephemeris_type": 0,
        "meta_classification_type": "U",
        "meta_norad_cat_id": 29709,
        "meta_element_set_no": 999,
        "meta_rev_at_epoch": 2350,
        "meta_bstar": 0.00011657228,
        "meta_mean_motion_dot": 9.54e-06,
        "meta_mean_motion_ddot": 0,
        "tle_line1": "1 29709U 07001A   25346.98236940  .00000954  00000+0  11657-3 0  9996",
        "tle_line2": "2 29709  98.1260 337.1437 0013582  73.2854 286.9850 14.85670038 23501"
      },
      "geometry": {
        "type": "Point",
        "coordinates": [
          145.0122092843969,
          -57.30974474244781
        ]
      }
    },
    {
      "type": "Feature",
      "properties": {
        "norad_id": 31113,
        "name": "HAIYANG-1B",
        "group": "resource",
        "lat": -64.46208461662856,
        "lon": -10.20043069038277,
        "alt_km": 797.608534304256,
        "timestamp": "2025-12-13T16:48:32.369945+00:00",
        "meta_object_name": "HAIYANG-1B",
        "meta_object_id": "2007-010A",
        "meta_epoch": "2025-12-12T22:39:21.282912",
        "meta_mean_motion": 14.30965156,
        "meta_eccentricity": 0.00142446,
        "meta_inclination": 98.3315,
        "meta_ra_of_asc_node": 331.2137,
        "meta_arg_of_pericenter": 37.3603,
        "meta_mean_anomaly": 322.8569,
        "meta_ephemeris_type": 0,
        "meta_classification_type": "U",
        "meta_norad_cat_id": 31113,
        "meta_element_set_no": 999,
        "meta_rev_at_epoch": 97399,
        "meta_bstar": 9.7006486e-05,
        "meta_mean_motion_dot": 2.14e-06,
        "meta_mean_motion_ddot": 0,
        "tle_line1": "1 31113U 07010A   25346.94399633  .00000214  00000+0  97006-4 0  9995",
        "tle_line2": "2 31113  98.3315 331.2137 0014244  37.3603 322.8569 14.30965156973999"
      },
      "geometry": {
        "type": "Point",
        "coordinates": [
          -10.20043069038277,
          -64.46208461662856
        ]
      }
    },
    {
      "type": "Feature",
      "properties": {
        "norad_id": 31598,
        "name": "COSMO-SKYMED 1",
        "group": "resource",
        "lat": -48.50790823583814,
        "lon": -15.907725764858293,
        "alt_km": 587.5270856675888,
        "timestamp": "2025-12-13T16:48:32.369956+00:00",
        "meta_object_name": "COSMO-SKYMED 1",
        "meta_object_id": "2007-023A",
        "meta_epoch": "2025-12-12T23:43:58.787904",
        "meta_mean_motion": 14.95766931,
        "meta_eccentricity": 0.00012327,
        "meta_inclination": 97.8835,
        "meta_ra_of_asc_node": 172.3895,
        "meta_arg_of_pericenter": 88.6605,
        "meta_mean_anomaly": 271.4757,
        "meta_ephemeris_type": 0,
        "meta_classification_type": "U",
        "meta_norad_cat_id": 31598,
        "meta_element_set_no": 999,
        "meta_rev_at_epoch": 194,
        "meta_bstar": 0.00052596313,
        "meta_mean_motion_dot": 5.807e-05,
        "meta_mean_motion_ddot": 0,
        "tle_line1": "1 31598U 07023A   25346.98887486  .00005807  00000+0  52596-3 0  9995",
        "tle_line2": "2 31598  97.8835 172.3895 0001232  88.6605 271.4757 14.95766931  1942"
      },
      "geometry": {
        "type": "Point",
        "coordinates": [
          -15.907725764858293,
          -48.50790823583814
        ]
      }
    },
    {
      "type": "Feature",
      "properties": {
        "norad_id": 31698,
        "name": "TERRASAR-X",
        "group": "resource",
        "lat": -34.18249343466202,
        "lon": -1.8359847392821043,
        "alt_km": 515.2765011789597,
        "timestamp": "2025-12-13T16:48:32.369967+00:00",
        "meta_object_name": "TERRASAR-X",
        "meta_object_id": "2007-026A",
        "meta_epoch": "2025-12-12T14:05:10.891104",
        "meta_mean_motion": 15.19146945,
        "meta_eccentricity": 0.00019276,
        "meta_inclination": 97.4459,
        "meta_ra_of_asc_node": 351.9708,
        "meta_arg_of_pericenter": 85.8663,
        "meta_mean_anomaly": 274.2792,
        "meta_ephemeris_type": 0,
        "meta_classification_type": "U",
        "meta_norad_cat_id": 31698,
        "meta_element_set_no": 999,
        "meta_rev_at_epoch": 2489,
        "meta_bstar": 0.00011245028,
        "meta_mean_motion_dot": 2.295e-05,
        "meta_mean_motion_ddot": 0,
        "tle_line1": "1 31698U 07026A   25346.58693161  .00002295  00000+0  11245-3 0  9994",
        "tle_line2": "2 31698  97.4459 351.9708 0001927  85.8663 274.2792 15.19146945 24896"
      },
      "geometry": {
        "type": "Point",
        "coordinates": [
          -1.8359847392821043,
          -34.18249343466202
        ]
      }
    },
    {
      "type": "Feature",
      "properties": {
        "norad_id": 32060,
        "name": "WORLDVIEW-1 (WV-1)",
        "group": "resource",
        "lat": -13.925411764711823,
        "lon": 107.00974490433381,
        "alt_km": 496.6348005944974,
        "timestamp": "2025-12-13T16:48:32.369977+00:00",
        "meta_object_name": "WORLDVIEW-1 (WV-1)",
        "meta_object_id": "2007-041A",
        "meta_epoch": "2025-12-12T21:58:09.822144",
        "meta_mean_motion": 15.24694402,
        "meta_eccentricity": 8.133e-05,
        "meta_inclination": 97.3831,
        "meta_ra_of_asc_node": 104.3936,
        "meta_arg_of_pericenter": 108.0465,
        "meta_mean_anomaly": 252.0862,
        "meta_ephemeris_type": 0,
        "meta_classification_type": "U",
        "meta_norad_cat_id": 32060,
        "meta_element_set_no": 999,
        "meta_rev_at_epoch": 1450,
        "meta_bstar": 0.00047223547,
        "meta_mean_motion_dot": 0.00011614,
        "meta_mean_motion_ddot": 0,
        "tle_line1": "1 32060U 07041A   25346.91539146  .00011614  00000+0  47224-3 0  9995",
        "tle_line2": "2 32060  97.3831 104.3936 0000813 108.0465 252.0862 15.24694402 14508"
      },
      "geometry": {
        "type": "Point",
        "coordinates": [
          107.00974490433381,
          -13.925411764711823
        ]
      }
    },
    {
      "type": "Feature",
      "properties": {
        "norad_id": 32289,
        "name": "YAOGAN-3",
        "group": "resource",
        "lat": 57.10912007172942,
        "lon": 2.0198019807133907,
        "alt_km": 592.0661842181999,
        "timestamp": "2025-12-13T16:48:32.369988+00:00",
        "meta_object_name": "YAOGAN-3",
        "meta_object_id": "2007-055A",
        "meta_epoch": "2025-12-13T00:25:51.757824",
        "meta_mean_motion": 14.89860327,
        "meta_eccentricity": 0.00012462,
        "meta_inclination": 97.8368,
        "meta_ra_of_asc_node": 13.6402,
        "meta_arg_of_pericenter": 79.8015,
        "meta_mean_anomaly": 280.3343,
        "meta_ephemeris_type": 0,
        "meta_classification_type": "U",
        "meta_norad_cat_id": 32289,
        "meta_element_set_no": 999,
        "meta_rev_at_epoch": 97813,
        "meta_bstar": 0.00044832425,
        "meta_mean_motion_dot": 4.254e-05,
        "meta_mean_motion_ddot": 0,
        "tle_line1": "1 32289U 07055A   25347.01796016  .00004254  00000+0  44832-3 0  9990",
        "tle_line2": "2 32289  97.8368  13.6402 0001246  79.8015 280.3343 14.89860327978135"
      },
      "geometry": {
        "type": "Point",
        "coordinates": [
          2.0198019807133907,
          57.10912007172942
        ]
      }
    }
  ]
}